{
  "norad_id": 68137,
  "name": "GUOWANG GROUP 20 OBJECT J",
  "history": [
    {
      "epoch": "2026-03-23T21:21:21.697344Z",
      "apogee_km": 886.1071228861665,
      "perigee_km": 885.8528787911373,
      "latitude_deg": 5.7093715099338465e-05,
      "longitude_deg": -129.19402125729786,
      "height_km": 886.5771642586362,
      "semi_major_axis_km": 7264.117000838652,
      "eccentricity": 1.75e-05,
      "inclination_deg": 50.0081,
      "raan_deg": 12.5219,
      "arg_perigee_deg": 124.6965,
      "mean_anomaly_deg": 235.3956,
      "mean_motion_rev_day": 14.02259904
    }
  ]
}